[{"OBJECT_NAME":"ONEWEB-0511","OBJECT_ID":"2022-138S","EPOCH":"2026-03-09T18:27:01.655424","MEAN_MOTION":13.1972564,"ECCENTRICITY":0.00014259,"INCLINATION":87.924,"RA_OF_ASC_NODE":324.7698,"ARG_OF_PERICENTER":77.9178,"MEAN_ANOMALY":282.2115,"EPHEMERIS_TYPE":0,"CLASSIFICATION_TYPE":"U","NORAD_CAT_ID":54129,"ELEMENT_SET_NO":999,"REV_AT_EPOCH":16372,"BSTAR":-0.00052940947,"MEAN_MOTION_DOT":-1.99e-6,"MEAN_MOTION_DDOT":0},{"OBJECT_NAME":"COSMOS 839 DEB","OBJECT_ID":"1976-067AC","EPOCH":"2026-03-09T20:54:20.913696","MEAN_MOTION":12.45889513,"ECCENTRICITY":0.07666001,"INCLINATION":65.849,"RA_OF_ASC_NODE":264.8006,"ARG_OF_PERICENTER":143.9791,"MEAN_ANOMALY":221.5462,"EPHEMERIS_TYPE":0,"CLASSIFICATION_TYPE":"U","NORAD_CAT_ID":10451,"ELEMENT_SET_NO":999,"REV_AT_EPOCH":25850,"BSTAR":7.8885858e-5,"MEAN_MOTION_DOT":-2.4e-7,"MEAN_MOTION_DDOT":0}]
